NORAD_CAT_ID,OBJECT_NAME,OBJECT_TYPE,EPOCH,MEAN_MOTION,ECCENTRICITY,INCLINATION,RA_OF_ASC_NODE,ARG_OF_PERICENTER,MEAN_ANOMALY,BSTAR,MEAN_MOTION_DOT,MEAN_MOTION_DDOT,TLE_LINE0,TLE_LINE1,TLE_LINE2,SEMIMAJOR_AXIS,PERIOD,APOGEE,PERIGEE,DECAYED
51728.0,STARLINK-3448,PAYLOAD,2024-01-08 21:36:20,15.08834387,0.0001565,53.2179,269.1087,75.2387,284.8779,6.8133e-05,7.96e-06,0.0,0 STARLINK-3448,1 51728U 22016Q   24008.90023785  .00000796  00000-0  68133-4 0  9999,2 51728  53.2179 269.1087 0001565  75.2387 284.8779 15.08834387104180,6917.898,95.438,540.845,538.68,0.0
51728.0,STARLINK-3448,PAYLOAD,2024-01-09 00:47:06,15.08838605,0.0001652,53.2183,268.5212,73.3093,286.8081,9.2126e-05,1.178e-05,0.0,0 STARLINK-3448,1 51728U 22016Q   24009.03271602  .00001178  00000-0  92126-4 0  9991,2 51728  53.2183 268.5212 0001652  73.3093 286.8081 15.08838605105331,6917.885,95.438,540.892,538.607,0.0
51728.0,STARLINK-3448,PAYLOAD,2024-01-09 21:27:07,15.08843169,0.0001507,53.2168,264.6553,73.7714,286.3444,4.9642e-05,5.02e-06,0.0,0 STARLINK-3448,1 51728U 22016Q   24009.89383537  .00000502  00000-0  49642-4 0  9991,2 51728  53.2168 264.6553 0001507  73.7714 286.3444 15.08843169104330,6917.871,95.437,540.778,538.693,0.0
51728.0,STARLINK-3448,PAYLOAD,2024-01-10 00:37:53,15.08845296,0.0001499,53.2169,264.0599,71.416,288.6995,0.00012348,1.678e-05,0.0,0 STARLINK-3448,1 51728U 22016Q   24010.02631208  .00001678  00000-0  12348-3 0  9996,2 51728  53.2169 264.0599 0001499  71.4160 288.6995 15.08845296104356,6917.864,95.437,540.766,538.692,0.0
51728.0,STARLINK-3448,PAYLOAD,2024-01-10 16:31:45,15.08841208,0.000164,53.2179,261.0895,76.8468,283.2707,5.5135e-05,5.9e-06,0.0,0 STARLINK-3448,1 51728U 22016Q   24010.68871780  .00000590  00000-0  55135-4 0  9993,2 51728  53.2179 261.0895 0001640  76.8468 283.2707 15.08841208105588,6917.877,95.437,540.876,538.607,0.0
51728.0,STARLINK-3448,PAYLOAD,2024-01-10 22:53:17,15.0884318,0.0001476,53.2166,259.897,85.4743,274.6418,7.2831e-05,8.71e-06,0.0,0 STARLINK-3448,1 51728U 22016Q   24010.95367540  .00000871  00000-0  72831-4 0  9991,2 51728  53.2166 259.8970 0001476  85.4743 274.6418 15.08843180104495,6917.871,95.437,540.757,538.715,0.0
51728.0,STARLINK-3448,PAYLOAD,2024-01-11 19:33:18,15.08842422,0.0001377,53.2164,256.0307,94.2962,265.8188,6.0803e-05,6.8e-06,0.0,0 STARLINK-3448,1 51728U 22016Q   24011.81479534  .00000680  00000-0  60803-4 0  9998,2 51728  53.2164 256.0307 0001377  94.2962 265.8188 15.08842422105751,6917.873,95.437,540.691,538.785,0.0
51728.0,STARLINK-3448,PAYLOAD,2024-01-11 22:44:04,15.08845246,0.0001413,53.2166,255.4362,86.5067,273.6086,7.3435e-05,8.81e-06,0.0,0 STARLINK-3448,1 51728U 22016Q   24011.94727359  .00000881  00000-0  73435-4 0  9991,2 51728  53.2166 255.4362 0001413  86.5067 273.6086 15.08845246104646,6917.864,95.437,540.707,538.752,0.0
51728.0,STARLINK-3448,PAYLOAD,2024-01-12 01:54:50,15.08849869,0.0001403,53.2166,254.8405,96.8647,263.2505,9.924e-05,1.292e-05,0.0,0 STARLINK-3448,1 51728U 22016Q   24012.07974905  .00001292  00000-0  99240-4 0  9996,2 51728  53.2166 254.8405 0001403  96.8647 263.2505 15.08849869105797,6917.85,95.437,540.686,538.745,0.0
51728.0,STARLINK-3448,PAYLOAD,2024-01-12 19:24:05,15.08837608,0.0001705,53.2165,251.5672,118.7949,241.3214,1.2846e-05,-8.4e-07,0.0,0 STARLINK-3448,1 51728U 22016Q   24012.80839959 -.00000084  00000-0  12846-4 0  9992,2 51728  53.2165 251.5672 0001705 118.7949 241.3214 15.08837608105905,6917.888,95.438,540.932,538.573,0.0
51728.0,STARLINK-3448,PAYLOAD,2024-01-12 22:34:52,15.08836831,0.0001433,53.2166,250.975,92.5244,267.5912,1.8807e-05,1.1e-07,0.0,0 STARLINK-3448,1 51728U 22016Q   24012.94088153  .00000011  00000-0  18807-4 0  9991,2 51728  53.2166 250.9750 0001433  92.5244 267.5912 15.08836831104799,6917.89,95.438,540.746,538.764,0.0
51728.0,STARLINK-3448,PAYLOAD,2024-01-13 19:14:52,15.08849383,0.0001694,53.2174,247.1051,121.02,239.0958,6.75e-05,7.87e-06,0.0,0 STARLINK-3448,1 51728U 22016Q   24013.80199280  .00000787  00000-0  67500-4 0  9995,2 51728  53.2174 247.1051 0001694 121.0200 239.0958 15.08849383106050,6917.852,95.437,540.889,538.545,0.0
51728.0,STARLINK-3448,PAYLOAD,2024-01-13 20:50:15,15.08848607,0.0001352,53.2172,246.8123,98.1254,261.9891,7.2302e-05,8.63e-06,0.0,0 STARLINK-3448,1 51728U 22016Q   24013.86823444  .00000863  00000-0  72302-4 0  9998,2 51728  53.2172 246.8123 0001352  98.1254 261.9891 15.08848607104931,6917.854,95.437,540.654,538.784,0.0
51728.0,STARLINK-3448,PAYLOAD,2024-01-14 19:05:40,15.08836127,0.000142,53.2169,242.6496,77.6685,282.4466,0.00010316,1.354e-05,0.0,0 STARLINK-3448,1 51728U 22016Q   24014.79560425  .00001354  00000-0  10316-3 0  9990,2 51728  53.2169 242.6496 0001420  77.6685 282.4466 15.08836127106202,6917.892,95.438,540.74,538.775,0.0
51728.0,STARLINK-3448,PAYLOAD,2024-01-14 20:41:03,15.08836876,0.0001429,53.2171,242.3525,77.2244,282.8907,0.00010686,1.413e-05,0.0,0 STARLINK-3448,1 51728U 22016Q   24014.86184392  .00001413  00000-0  10686-3 0  9999,2 51728  53.2171 242.3525 0001429  77.2244 282.8907 15.08836876105081,6917.89,95.438,540.744,538.766,0.0
51728.0,STARLINK-3448,PAYLOAD,2024-01-15 20:31:50,15.08842815,0.0001423,53.2167,237.8982,86.5788,273.5366,6.0817e-05,6.8e-06,0.0,0 STARLINK-3448,1 51728U 22016Q   24015.85544153  .00000680  00000-0  60817-4 0  9991,2 51728  53.2167 237.8982 0001423  86.5788 273.5366 15.08842815105235,6917.872,95.437,540.721,538.752,0.0
51728.0,STARLINK-3448,PAYLOAD,2024-01-16 01:17:59,15.08845244,0.0001481,53.2166,236.9985,83.6366,276.4794,6.0752e-05,6.79e-06,0.0,0 STARLINK-3448,1 51728U 22016Q   24016.05415874  .00000679  00000-0  60752-4 0  9997,2 51728  53.2166 236.9985 0001481  83.6366 276.4794 15.08845244106395,6917.864,95.437,540.754,538.705,0.0
51728.0,STARLINK-3448,PAYLOAD,2024-01-16 18:47:14,15.08833908,0.0001528,53.2169,233.7268,85.8433,274.2734,3.5903e-05,2.83e-06,0.0,0 STARLINK-3448,1 51728U 22016Q   24016.78280809  .00000283  00000-0  35903-4 0  9996,2 51728  53.2169 233.7268 0001528  85.8433 274.2734 15.08833908106505,6917.899,95.438,540.821,538.707,0.0
51728.0,STARLINK-3448,PAYLOAD,2024-01-16 21:58:01,15.08811714,0.0001686,53.2167,233.1324,83.9045,276.214,0.00037198,5.632e-05,0.0,0 STARLINK-3448,1 51728U 22016Q   24016.91529241  .00005632  00000-0  37198-3 0  9997,2 51728  53.2167 233.1324 0001686  83.9045 276.2140 15.08811714105393,6917.967,95.439,540.998,538.665,0.0
51728.0,STARLINK-3448,PAYLOAD,2024-01-16 23:33:23,15.08840297,0.0001481,53.2168,232.8342,82.1091,278.0069,5.8339e-05,6.41e-06,0.0,0 STARLINK-3448,1 51728U 22016Q   24016.98152354  .00000641  00000-0  58339-4 0  9997,2 51728  53.2168 232.8342 0001481  82.1091 278.0069 15.08840297106530,6917.879,95.438,540.769,538.72,0.0
51728.0,STARLINK-3448,PAYLOAD,2024-01-17 09:05:42,15.08842167,0.0001315,53.2152,231.0514,104.3653,255.7485,2.3076e-05,7.9e-07,0.0,0 STARLINK-3448,1 51728U 22016Q   24017.37896384  .00000079  00000-0  23076-4 0  9994,2 51728  53.2152 231.0514 0001315 104.3653 255.7485 15.08842167105465,6917.874,95.437,540.648,538.829,0.0
51728.0,STARLINK-3448,PAYLOAD,2024-01-17 18:38:01,15.08842957,0.0001313,53.2152,229.267,103.696,256.4178,3.2371e-05,2.27e-06,0.0,0 STARLINK-3448,1 51728U 22016Q   24017.77640284  .00000227  00000-0  32371-4 0  9997,2 51728  53.2152 229.2670 0001313 103.6960 256.4178 15.08842957105529,6917.871,95.437,540.645,538.828,0.0
51728.0,STARLINK-3448,PAYLOAD,2024-01-18 13:42:38,15.08840389,0.0001375,53.2152,225.6988,97.9088,262.206,0.00012744,1.741e-05,0.0,0 STARLINK-3448,1 51728U 22016Q   24018.57128236  .00001741  00000-0  12744-3 0  9997,2 51728  53.2152 225.6988 0001375  97.9088 262.2060 15.08840389105640,6917.879,95.438,540.695,538.793,0.0
51728.0,STARLINK-3448,PAYLOAD,2024-01-18 18:28:49,15.08826101,0.0001469,53.2154,224.8071,90.4971,269.619,-7.199e-05,-1.433e-05,0.0,0 STARLINK-3448,1 51728U 22016Q   24018.77001704 -.00001433  00000-0 -71990-4 0  9998,2 51728  53.2154 224.8071 0001469  90.4971 269.6190 15.08826101106809,6917.923,95.438,540.804,538.772,0.0
51728.0,STARLINK-3448,PAYLOAD,2024-01-19 13:33:28,15.08821159,0.0001456,53.2149,221.2388,90.0559,270.06,-7.5113e-05,-1.483e-05,0.0,0 STARLINK-3448,1 51728U 22016Q   24019.56490771 -.00001483  00000-0 -75113-4 0  9998,2 51728  53.2149 221.2388 0001456  90.0559 270.0600 15.08821159105796,6917.938,95.439,540.81,538.796,0.0
51728.0,STARLINK-3448,PAYLOAD,2024-01-19 19:55:00,15.08825669,0.0001428,53.2149,220.0492,101.1289,258.9864,-2.4926e-05,-6.84e-06,0.0,0 STARLINK-3448,1 51728U 22016Q   24019.82986702 -.00000684  00000-0 -24926-4 0  9999,2 51728  53.2149 220.0492 0001428 101.1289 258.9864 15.08825669106969,6917.924,95.438,540.777,538.801,0.0
51728.0,STARLINK-3448,PAYLOAD,2024-01-19 23:05:44,15.08898638,0.0001013,53.2148,219.4538,115.2553,244.8544,-0.0010517,-0.00017013,0.0,0 STARLINK-3448,1 51728U 22016Q   24019.96232513 -.00017013  00000-0 -10517-2 0  9991,2 51728  53.2148 219.4538 0001013 115.2553 244.8544 15.08898638106988,6917.701,95.434,540.267,538.865,0.0
51728.0,STARLINK-3448,PAYLOAD,2024-01-20 13:24:14,15.08837579,0.0001251,53.2154,216.7777,103.7686,256.3445,0.00013145,1.805e-05,0.0,0 STARLINK-3448,1 51728U 22016Q   24020.55850003  .00001805  00000-0  13145-3 0  9999,2 51728  53.2154 216.7777 0001251 103.7686 256.3445 15.08837579105943,6917.888,95.438,540.618,538.887,0.0
51728.0,STARLINK-3448,PAYLOAD,2024-01-20 18:10:24,15.08836024,0.0001363,53.2143,215.886,101.6586,258.4559,0.00039294,5.971e-05,0.0,0 STARLINK-3448,1 51728U 22016Q   24020.75722644  .00005971  00000-0  39294-3 0  9991,2 51728  53.2143 215.8860 0001363 101.6586 258.4559 15.08836024107107,6917.893,95.438,540.7,538.815,0.0
51728.0,STARLINK-3448,PAYLOAD,2024-01-20 22:56:33,15.08840374,0.0001374,53.2142,214.9936,103.6733,256.4412,0.00041971,6.398e-05,0.0,0 STARLINK-3448,1 51728U 22016Q   24020.95594530  .00006398  00000-0  41971-3 0  9993,2 51728  53.2142 214.9936 0001374 103.6733 256.4412 15.08840374106005,6917.879,95.438,540.695,538.794,0.0
